[{"OBJECT_NAME":"YAOGAN-28","OBJECT_ID":"2015-064A","EPOCH":"2026-03-09T23:07:10.370208","MEAN_MOTION":15.26008,"ECCENTRICITY":0.00111911,"INCLINATION":97.2901,"RA_OF_ASC_NODE":209.4389,"ARG_OF_PERICENTER":175.4532,"MEAN_ANOMALY":184.6811,"EPHEMERIS_TYPE":0,"CLASSIFICATION_TYPE":"U","NORAD_CAT_ID":41026,"ELEMENT_SET_NO":999,"REV_AT_EPOCH":57554,"BSTAR":0.00039691695,"MEAN_MOTION_DOT":0.00010159,"MEAN_MOTION_DDOT":0},{"OBJECT_NAME":"STARLINK-36408","OBJECT_ID":"2026-008AE","EPOCH":"2026-03-09T09:07:25.848192","MEAN_MOTION":15.27602816,"ECCENTRICITY":0.00022677,"INCLINATION":42.9933,"RA_OF_ASC_NODE":207.0577,"ARG_OF_PERICENTER":173.6156,"MEAN_ANOMALY":186.4724,"EPHEMERIS_TYPE":0,"CLASSIFICATION_TYPE":"U","NORAD_CAT_ID":67473,"ELEMENT_SET_NO":999,"REV_AT_EPOCH":952,"BSTAR":0.0012043824,"MEAN_MOTION_DOT":0.00033053,"MEAN_MOTION_DDOT":0}]
